NORAD_CAT_ID,OBJECT_NAME,OBJECT_TYPE,EPOCH,MEAN_MOTION,ECCENTRICITY,INCLINATION,RA_OF_ASC_NODE,ARG_OF_PERICENTER,MEAN_ANOMALY,BSTAR,MEAN_MOTION_DOT,MEAN_MOTION_DDOT,TLE_LINE0,TLE_LINE1,TLE_LINE2,SEMIMAJOR_AXIS,PERIOD,APOGEE,PERIGEE,DECAYED
49732.0,STARLINK-3246,PAYLOAD,2023-05-26 00:19:05,15.08843797,0.0001155,53.2179,52.1073,94.718,265.3944,8.8711e-05,1.124e-05,0.0,0 STARLINK-3246,1 49732U 21115J   23146.01325813  .00001124  00000-0  88711-4 0  9991,2 49732  53.2179  52.1073 0001155  94.7180 265.3944 15.08843797 82716,6917.869,95.437,540.533,538.935,0.0
49732.0,STARLINK-3246,PAYLOAD,2023-05-26 17:48:20,15.08838898,0.0001327,53.2179,48.8345,102.0738,258.0403,2.4809e-05,1.07e-06,0.0,0 STARLINK-3246,1 49732U 21115J   23146.74190289  .00000107  00000-0  24809-4 0  9996,2 49732  53.2179  48.8345 0001327 102.0738 258.0403 15.08838898 82820,6917.884,95.438,540.667,538.831,0.0
49732.0,STARLINK-3246,PAYLOAD,2023-05-26 20:59:06,15.08838573,0.0001302,53.2178,48.2397,101.7329,258.3809,1.7608e-05,-8e-08,0.0,0 STARLINK-3246,1 49732U 21115J   23146.87438304 -.00000008  00000-0  17608-4 0  9993,2 49732  53.2178  48.2397 0001302 101.7329 258.3809 15.08838573 81737,6917.885,95.438,540.65,538.849,0.0
49732.0,STARLINK-3246,PAYLOAD,2023-05-27 20:49:53,15.08836977,0.0001198,53.2178,43.781,86.2183,273.8946,7.7697e-05,9.49e-06,0.0,0 STARLINK-3246,1 49732U 21115J   23147.86798230  .00000949  00000-0  77697-4 0  9997,2 49732  53.2178  43.7810 0001198  86.2183 273.8946 15.08836977 82994,6917.89,95.438,540.583,538.926,0.0
49732.0,STARLINK-3246,PAYLOAD,2023-05-27 22:25:16,15.08840814,0.0001228,53.2178,43.4836,82.36,277.7532,4.5974e-05,4.44e-06,0.0,0 STARLINK-3246,1 49732U 21115J   23147.93422116  .00000444  00000-0  45974-4 0  9995,2 49732  53.2178  43.4836 0001228  82.3600 277.7532 15.08840814 81891,6917.878,95.438,540.592,538.893,0.0
49732.0,STARLINK-3246,PAYLOAD,2023-05-28 00:00:39,15.08847463,0.0001118,53.2178,43.1863,84.1458,275.9662,3.0001e-05,1.9e-06,0.0,0 STARLINK-3246,1 49732U 21115J   23148.00045733  .00000190  00000-0  30001-4 0  9993,2 49732  53.2178  43.1863 0001118  84.1458 275.9662 15.08847463 83014,6917.858,95.437,540.496,538.949,0.0
49732.0,STARLINK-3246,PAYLOAD,2023-05-28 20:40:40,15.08834763,0.000121,53.2172,39.3226,88.7497,271.3634,6.4062e-05,7.32e-06,0.0,0 STARLINK-3246,1 49732U 21115J   23148.86158477  .00000732  00000-0  64062-4 0  9993,2 49732  53.2172  39.3226 0001210  88.7497 271.3634 15.08834763 83146,6917.896,95.438,540.598,538.924,0.0
49732.0,STARLINK-3246,PAYLOAD,2023-05-29 01:26:49,15.08843651,0.0001203,53.218,38.4284,79.2683,280.8444,8.225e-05,1.022e-05,0.0,0 STARLINK-3246,1 49732U 21115J   23149.06029882  .00001022  00000-0  82250-4 0  9995,2 49732  53.2180  38.4284 0001203  79.2683 280.8444 15.08843651 83176,6917.869,95.437,540.566,538.902,0.0
49732.0,STARLINK-3246,PAYLOAD,2023-05-29 17:20:42,15.08835752,0.0001414,53.2193,35.4574,96.7456,263.3697,-6.8984e-05,-1.386e-05,0.0,0 STARLINK-3246,1 49732U 21115J   23149.72270976 -.00001386  00000-0 -68984-4 0  9993,2 49732  53.2193  35.4574 0001414  96.7456 263.3697 15.08835752 83275,6917.893,95.438,540.737,538.78,0.0
49732.0,STARLINK-3246,PAYLOAD,2023-05-29 20:31:28,15.08837081,0.0001164,53.217,34.8618,95.0094,265.1031,-5.8369e-05,-1.217e-05,0.0,0 STARLINK-3246,1 49732U 21115J   23149.85518894 -.00001217  00000-0 -58369-4 0  9990,2 49732  53.2170  34.8618 0001164  95.0094 265.1031 15.08837081 82182,6917.889,95.438,540.56,538.949,0.0
49732.0,STARLINK-3246,PAYLOAD,2023-05-30 01:17:37,15.08837493,0.000125,53.217,33.97,103.5975,256.5157,-4.0214e-05,-9.28e-06,0.0,0 STARLINK-3246,1 49732U 21115J   23150.05390818 -.00000928  00000-0 -40214-4 0  9996,2 49732  53.2170  33.9700 0001250 103.5975 256.5157 15.08837493 82217,6917.888,95.438,540.618,538.888,0.0
49732.0,STARLINK-3246,PAYLOAD,2023-05-30 15:36:05,15.08840471,0.0001359,53.2182,31.2895,95.9862,264.1285,1.0601e-05,-1.19e-06,0.0,0 STARLINK-3246,1 49732U 21115J   23150.65006680 -.00000119  00000-0  10601-4 0  9991,2 49732  53.2182  31.2895 0001359  95.9862 264.1285 15.08840471 83415,6917.879,95.438,540.684,538.804,0.0
49732.0,STARLINK-3246,PAYLOAD,2023-05-30 21:57:37,15.08844541,0.0001187,53.217,30.1035,92.5104,267.6024,9.0582e-05,1.154e-05,0.0,0 STARLINK-3246,1 49732U 21115J   23150.91502038  .00001154  00000-0  90582-4 0  9993,2 49732  53.2170  30.1035 0001187  92.5104 267.6024 15.08844541 82349,6917.867,95.437,540.553,538.91,0.0
49732.0,STARLINK-3246,PAYLOAD,2023-05-30 23:33:00,15.0884715,0.0001198,53.2171,29.806,92.1162,267.9968,0.00010787,1.43e-05,0.0,0 STARLINK-3246,1 49732U 21115J   23150.98125810  .00001430  00000-0  10787-3 0  9994,2 49732  53.2171  29.8060 0001198  92.1162 267.9968 15.08847150 83468,6917.859,95.437,540.552,538.895,0.0
49732.0,STARLINK-3246,PAYLOAD,2023-05-31 21:48:25,15.08835985,0.0001244,53.2173,25.6427,82.4068,277.7065,7.3296e-05,8.79e-06,0.0,0 STARLINK-3246,1 49732U 21115J   23151.90862734  .00000879  00000-0  73296-4 0  9991,2 49732  53.2173  25.6427 0001244  82.4068 277.7065 15.08835985 82492,6917.893,95.438,540.618,538.897,0.0
49732.0,STARLINK-3246,PAYLOAD,2023-06-01 21:39:12,15.08841082,0.0001343,53.217,21.1831,75.2068,284.9072,8.1139e-05,1.004e-05,0.0,0 STARLINK-3246,1 49732U 21115J   23152.90222312  .00001004  00000-0  81139-4 0  9990,2 49732  53.2170  21.1831 0001343  75.2068 284.9072 15.08841082 82649,6917.877,95.437,540.671,538.813,0.0
49732.0,STARLINK-3246,PAYLOAD,2023-06-02 00:49:57,15.08849679,0.0001282,53.2176,20.5866,80.6005,279.5132,2.7843e-05,1.55e-06,0.0,0 STARLINK-3246,1 49732U 21115J   23153.03469846  .00000155  00000-0  27843-4 0  9998,2 49732  53.2176  20.5866 0001282  80.6005 279.5132 15.08849679 83771,6917.851,95.437,540.603,538.829,0.0
49732.0,STARLINK-3246,PAYLOAD,2023-06-02 18:19:13,15.08841277,0.0001526,53.2186,17.3086,113.8655,246.2497,-6.8352e-05,-1.376e-05,0.0,0 STARLINK-3246,1 49732U 21115J   23153.76334826 -.00001376  00000-0 -68352-4 0  9995,2 49732  53.2186  17.3086 0001526 113.8655 246.2497 15.08841277 83884,6917.876,95.437,540.797,538.686,0.0
49732.0,STARLINK-3246,PAYLOAD,2023-06-03 21:20:46,15.0885455,0.0001131,53.2174,12.2603,93.0515,267.0607,-0.00010624,-1.979e-05,0.0,0 STARLINK-3246,1 49732U 21115J   23154.88942292 -.00001979  00000-0 -10624-3 0  9998,2 49732  53.2174  12.2603 0001131  93.0515 267.0607 15.08854550 82944,6917.836,95.437,540.483,538.919,0.0
49732.0,STARLINK-3246,PAYLOAD,2023-06-04 00:31:31,15.08876018,0.000107,53.2176,11.6653,99.4635,260.6478,-0.00037012,-6.179e-05,0.0,0 STARLINK-3246,1 49732U 21115J   23155.02189729 -.00006179  00000-0 -37012-3 0  9990,2 49732  53.2176  11.6653 0001070  99.4635 260.6478 15.08876018 84073,6917.77,95.435,540.375,538.895,0.0
49732.0,STARLINK-3246,PAYLOAD,2023-06-04 10:03:52,15.08824848,0.0001234,53.2172,9.8813,95.9983,264.1149,0.00015411,2.165e-05,0.0,0 STARLINK-3246,1 49732U 21115J   23155.41935349  .00002165  00000-0  15411-3 0  9998,2 49732  53.2172   9.8813 0001234  95.9983 264.1149 15.08824848 83027,6917.927,95.439,540.645,538.938,0.0
49732.0,STARLINK-3246,PAYLOAD,2023-06-04 19:36:11,15.08786918,0.0001417,53.2172,8.0968,103.4738,256.6412,0.00063083,9.751e-05,0.0,0 STARLINK-3246,1 49732U 21115J   23155.81679939  .00009751  00000-0  63083-3 0  9998,2 49732  53.2172   8.0968 0001417 103.4738 256.6412 15.08786918 84198,6918.043,95.441,540.888,538.927,0.0
49732.0,STARLINK-3246,PAYLOAD,2023-06-04 21:11:33,15.08837158,0.0001091,53.2172,7.8013,95.295,264.8167,3.6472e-05,2.93e-06,0.0,0 STARLINK-3246,1 49732U 21115J   23155.88303085  .00000293  00000-0  36472-4 0  9996,2 49732  53.2172   7.8013 0001091  95.2950 264.8167 15.08837158 83097,6917.889,95.438,540.509,538.999,0.0
49732.0,STARLINK-3246,PAYLOAD,2023-06-05 00:22:19,15.08839513,0.0001111,53.2172,7.2059,94.7832,265.3287,6.1857e-05,6.97e-06,0.0,0 STARLINK-3246,1 49732U 21115J   23156.01550866  .00000697  00000-0  61857-4 0  9996,2 49732  53.2172   7.2059 0001111  94.7832 265.3287 15.08839513 84229,6917.882,95.438,540.515,538.978,0.0
49732.0,STARLINK-3246,PAYLOAD,2023-06-05 13:05:25,15.08836004,0.0001005,53.2174,4.827,87.4323,272.6784,6.8275e-05,7.99e-06,0.0,0 STARLINK-3246,1 49732U 21115J   23156.54543254  .00000799  00000-0  68275-4 0  9991,2 49732  53.2174   4.8270 0001005  87.4323 272.6784 15.08836004 83195,6917.893,95.438,540.453,539.062,0.0
49732.0,STARLINK-3246,PAYLOAD,2023-06-05 19:26:57,15.08843173,0.0001006,53.2175,3.6377,87.9472,272.1635,3.9326e-05,3.38e-06,0.0,0 STARLINK-3246,1 49732U 21115J   23156.81038954  .00000338  00000-0  39326-4 0  9991,2 49732  53.2175   3.6377 0001006  87.9472 272.1635 15.08843173 83232,6917.871,95.437,540.432,539.04,0.0
49732.0,STARLINK-3246,PAYLOAD,2023-06-06 08:10:02,15.08840925,9.91e-05,53.2175,1.2592,92.8989,267.2117,-1.5643e-05,-5.37e-06,0.0,0 STARLINK-3246,1 49732U 21115J   23157.34031166 -.00000537  00000-0 -15643-4 0  9997,2 49732  53.2175   1.2592 0000991  92.8989 267.2117 15.08840925 84429,6917.878,95.437,540.428,539.057,0.0
49732.0,STARLINK-3246,PAYLOAD,2023-06-06 16:06:59,15.08833021,0.0001024,53.2175,359.7719,87.5565,272.5545,5.2756e-05,5.52e-06,0.0,0 STARLINK-3246,1 49732U 21115J   23157.67151665  .00000552  00000-0  52756-4 0  9991,2 49732  53.2175 359.7719 0001024  87.5565 272.5545 15.08833021 84478,6917.902,95.438,540.475,539.058,0.0
49732.0,STARLINK-3246,PAYLOAD,2023-06-06 19:17:45,15.08835476,9.88e-05,53.2176,359.1777,86.2265,273.8841,6.9389e-05,8.17e-06,0.0,0 STARLINK-3246,1 49732U 21115J   23157.80399539  .00000817  00000-0  69389-4 0  9994,2 49732  53.2176 359.1777 0000988  86.2265 273.8841 15.08835476 83386,6917.894,95.438,540.443,539.076,0.0
49732.0,STARLINK-3246,PAYLOAD,2023-06-07 00:03:54,15.08844055,0.00011,53.217,358.2847,90.0712,270.0406,0.00010765,1.426e-05,0.0,0 STARLINK-3246,1 49732U 21115J   23158.00270912  .00001426  00000-0  10765-3 0  9990,2 49732  53.2170 358.2847 0001100  90.0712 270.0406 15.08844055 84521,6917.868,95.437,540.494,538.972,0.0
